{"type": "FeatureCollection", "features": [ {"type": "Feature", "properties": {"norad_id": 33917, "name": "COSMOS 2251 DEB", "group": "cosmos-2251-debris", "lat": -56.36960715705993, "lon": 89.30446211293628, "alt_km": 981.3365741461284, "timestamp": "2025-12-17T10:52:54.745328+00:00", "meta": {"OBJECT_NAME": "COSMOS 2251 DEB", "OBJECT_ID": "1993-036DW", "EPOCH": "2025-12-16T17:38:54.720384", "MEAN_MOTION": 13.69367338, "ECCENTRICITY": 0.03313144, "INCLINATION": 74.107, "RA_OF_ASC_NODE": 115.842, "ARG_OF_PERICENTER": 215.933, "MEAN_ANOMALY": 141.9102, "EPHEMERIS_TYPE": 0, "CLASSIFICATION_TYPE": "U", "NORAD_CAT_ID": 33917, "ELEMENT_SET_NO": 999, "REV_AT_EPOCH": 83788, "BSTAR": 0.00069367748, "MEAN_MOTION_DOT": 8.63e-06, "MEAN_MOTION_DDOT": 0}, "tle": {"line1": "1 33917U 93036DW  25350.73535556  .00000863  00000+0  69368-3 0  9999", "line2": "2 33917  74.1070 115.8420 0331314 215.9330 141.9102 13.69367338837884"}}, "geometry": {"type": "Point", "coordinates": [89.30446211293628, -56.36960715705993]}}, {"type": "Feature", "properties": {"norad_id": 33920, "name": "COSMOS 2251 DEB", "group": "cosmos-2251-debris", "lat": 73.70652201891203, "lon": 7.335805119912814, "alt_km": 714.7431430480501, "timestamp": "2025-12-17T10:52:54.745338+00:00", "meta": {"OBJECT_NAME": "COSMOS 2251 DEB", "OBJECT_ID": "1993-036DZ", "EPOCH": "2025-12-16T03:12:15.143040", "MEAN_MOTION": 14.58334795, "ECCENTRICITY": 0.00380587, "INCLINATION": 74.0619, "RA_OF_ASC_NODE": 291.9782, "ARG_OF_PERICENTER": 297.9916, "MEAN_ANOMALY": 61.74, "EPHEMERIS_TYPE": 0, "CLASSIFICATION_TYPE": "U", "NORAD_CAT_ID": 33920, "ELEMENT_SET_NO": 999, "REV_AT_EPOCH": 88164, "BSTAR": 0.0013009676, "MEAN_MOTION_DOT": 6.056e-05, "MEAN_MOTION_DDOT": 0}, "tle": {"line1": "1 33920U 93036DZ  25350.13350860  .00006056  00000+0  13010-2 0  9992", "line2": "2 33920  74.0619 291.9782 0038058 297.9916  61.7400 14.58334795881645"}}, "geometry": {"type": "Point", "coordinates": [7.335805119912814, 73.70652201891203]}}, {"type": "Feature", "properties": {"norad_id": 33922, "name": "COSMOS 2251 DEB", "group": "cosmos-2251-debris", "lat": 70.72175172621425, "lon": -166.2068037626748, "alt_km": 736.2418195667269, "timestamp": "2025-12-17T10:52:54.745348+00:00", "meta": {"OBJECT_NAME": "COSMOS 2251 DEB", "OBJECT_ID": "1993-036EB", "EPOCH": "2025-12-16T20:09:37.886976", "MEAN_MOTION": 14.49523059, "ECCENTRICITY": 0.00232091, "INCLINATION": 74.0467, "RA_OF_ASC_NODE": 140.075, "ARG_OF_PERICENTER": 250.1793, "MEAN_ANOMALY": 229.3974, "EPHEMERIS_TYPE": 0, "CLASSIFICATION_TYPE": "U", "NORAD_CAT_ID": 33922, "ELEMENT_SET_NO": 999, "REV_AT_EPOCH": 88637, "BSTAR": 0.00039781511, "MEAN_MOTION_DOT": 1.503e-05, "MEAN_MOTION_DDOT": 0}, "tle": {"line1": "1 33922U 93036EB  25350.84002184  .00001503  00000+0  39782-3 0  9992", "line2": "2 33922  74.0467 140.0750 0023209 250.1793 229.3974 14.49523059886379"}}, "geometry": {"type": "Point", "coordinates": [-166.2068037626748, 70.72175172621425]}}, {"type": "Feature", "properties": {"norad_id": 33924, "name": "COSMOS 2251 DEB", "group": "cosmos-2251-debris", "lat": 51.47410384966637, "lon": 61.37590077167653, "alt_km": 1363.8825673250549, "timestamp": "2025-12-17T10:52:54.745358+00:00", "meta": {"OBJECT_NAME": "COSMOS 2251 DEB", "OBJECT_ID": "1993-036ED", "EPOCH": "2025-12-16T20:00:52.824672", "MEAN_MOTION": 13.50231316, "ECCENTRICITY": 0.0403948, "INCLINATION": 73.9135, "RA_OF_ASC_NODE": 263.6203, "ARG_OF_PERICENTER": 298.3529, "MEAN_ANOMALY": 57.7395, "EPHEMERIS_TYPE": 0, "CLASSIFICATION_TYPE": "U", "NORAD_CAT_ID": 33924, "ELEMENT_SET_NO": 999, "REV_AT_EPOCH": 82794, "BSTAR": 0.00058355962, "MEAN_MOTION_DOT": 5.94e-06, "MEAN_MOTION_DDOT": 0}, "tle": {"line1": "1 33924U 93036ED  25350.83394473  .00000594  00000+0  58356-3 0  9995", "line2": "2 33924  73.9135 263.6203 0403948 298.3529  57.7395 13.50231316827940"}}, "geometry": {"type": "Point", "coordinates": [61.37590077167653, 51.47410384966637]}}, {"type": "Feature", "properties": {"norad_id": 33928, "name": "COSMOS 2251 DEB", "group": "cosmos-2251-debris", "lat": -61.732381532686475, "lon": -103.88189911865784, "alt_km": 740.9695663930797, "timestamp": "2025-12-17T10:52:54.745369+00:00", "meta": {"OBJECT_NAME": "COSMOS 2251 DEB", "OBJECT_ID": "1993-036EH", "EPOCH": "2025-12-16T12:10:41.786112", "MEAN_MOTION": 14.47411499, "ECCENTRICITY": 0.00616512, "INCLINATION": 73.9259, "RA_OF_ASC_NODE": 45.4717, "ARG_OF_PERICENTER": 338.7879, "MEAN_ANOMALY": 21.0723, "EPHEMERIS_TYPE": 0, "CLASSIFICATION_TYPE": "U", "NORAD_CAT_ID": 33928, "ELEMENT_SET_NO": 999, "REV_AT_EPOCH": 88699, "BSTAR": 0.00021975245, "MEAN_MOTION_DOT": 7.96e-06, "MEAN_MOTION_DDOT": 0}, "tle": {"line1": "1 33928U 93036EH  25350.50742808  .00000796  00000+0  21975-3 0  9993", "line2": "2 33928  73.9259  45.4717 0061651 338.7879  21.0723 14.47411499886993"}}, "geometry": {"type": "Point", "coordinates": [-103.88189911865784, -61.732381532686475]}}, {"type": "Feature", "properties": {"norad_id": 33932, "name": "COSMOS 2251 DEB", "group": "cosmos-2251-debris", "lat": -54.384835026232984, "lon": 150.7810683925085, "alt_km": 789.8676271059785, "timestamp": "2025-12-17T10:52:54.745379+00:00", "meta": {"OBJECT_NAME": "COSMOS 2251 DEB", "OBJECT_ID": "1993-036EM", "EPOCH": "2025-12-16T23:46:03.963360", "MEAN_MOTION": 14.38770751, "ECCENTRICITY": 0.00355244, "INCLINATION": 74.0339, "RA_OF_ASC_NODE": 308.0777, "ARG_OF_PERICENTER": 23.2191, "MEAN_ANOMALY": 337.0558, "EPHEMERIS_TYPE": 0, "CLASSIFICATION_TYPE": "U", "NORAD_CAT_ID": 33932, "ELEMENT_SET_NO": 999, "REV_AT_EPOCH": 88059, "BSTAR": 0.00042844592, "MEAN_MOTION_DOT": 1.3e-05, "MEAN_MOTION_DDOT": 0}, "tle": {"line1": "1 33932U 93036EM  25350.99032365  .00001300  00000+0  42845-3 0  9992", "line2": "2 33932  74.0339 308.0777 0035524  23.2191 337.0558 14.38770751880591"}}, "geometry": {"type": "Point", "coordinates": [150.7810683925085, -54.384835026232984]}}, {"type": "Feature", "properties": {"norad_id": 33933, "name": "COSMOS 2251 DEB", "group": "cosmos-2251-debris", "lat": -3.7936718948348562, "lon": 50.462648911088934, "alt_km": 759.3911746696722, "timestamp": "2025-12-17T10:52:54.745395+00:00", "meta": {"OBJECT_NAME": "COSMOS 2251 DEB", "OBJECT_ID": "1993-036EN", "EPOCH": "2025-12-16T14:48:04.717728", "MEAN_MOTION": 14.33495006, "ECCENTRICITY": 0.00708324, "INCLINATION": 74.0894, "RA_OF_ASC_NODE": 53.0707, "ARG_OF_PERICENTER": 60.3161, "MEAN_ANOMALY": 300.5017, "EPHEMERIS_TYPE": 0, "CLASSIFICATION_TYPE": "U", "NORAD_CAT_ID": 33933, "ELEMENT_SET_NO": 999, "REV_AT_EPOCH": 87840, "BSTAR": 0.00023934966, "MEAN_MOTION_DOT": 6.55e-06, "MEAN_MOTION_DDOT": 0}, "tle": {"line1": "1 33933U 93036EN  25350.61672127  .00000655  00000+0  23935-3 0  9999", "line2": "2 33933  74.0894  53.0707 0070832  60.3161 300.5017 14.33495006878402"}}, "geometry": {"type": "Point", "coordinates": [50.462648911088934, -3.7936718948348562]}}, {"type": "Feature", "properties": {"norad_id": 33934, "name": "COSMOS 2251 DEB", "group": "cosmos-2251-debris", "lat": -7.855314433037591, "lon": -86.145913443996, "alt_km": 689.7557144155808, "timestamp": "2025-12-17T10:52:54.745406+00:00", "meta": {"OBJECT_NAME": "COSMOS 2251 DEB", "OBJECT_ID": "1993-036EP", "EPOCH": "2025-12-16T17:34:02.118144", "MEAN_MOTION": 14.5914416, "ECCENTRICITY": 0.00155355, "INCLINATION": 74.0382, "RA_OF_ASC_NODE": 92.965, "ARG_OF_PERICENTER": 216.8966, "MEAN_ANOMALY": 143.1132, "EPHEMERIS_TYPE": 0, "CLASSIFICATION_TYPE": "U", "NORAD_CAT_ID": 33934, "ELEMENT_SET_NO": 999, "REV_AT_EPOCH": 88797, "BSTAR": 0.00067576998, "MEAN_MOTION_DOT": 3.16e-05, "MEAN_MOTION_DDOT": 0}, "tle": {"line1": "1 33934U 93036EP  25350.73196896  .00003160  00000+0  67577-3 0  9991", "line2": "2 33934  74.0382  92.9650 0015535 216.8966 143.1132 14.59144160887975"}}, "geometry": {"type": "Point", "coordinates": [-86.145913443996, -7.855314433037591]}}, {"type": "Feature", "properties": {"norad_id": 33936, "name": "COSMOS 2251 DEB", "group": "cosmos-2251-debris", "lat": 42.26344811305705, "lon": -166.62013544219215, "alt_km": 675.3116675404935, "timestamp": "2025-12-17T10:52:54.745416+00:00", "meta": {"OBJECT_NAME": "COSMOS 2251 DEB", "OBJECT_ID": "1993-036ER", "EPOCH": "2025-12-16T19:27:52.992864", "MEAN_MOTION": 14.60297922, "ECCENTRICITY": 0.00272657, "INCLINATION": 74.0186, "RA_OF_ASC_NODE": 29.703, "ARG_OF_PERICENTER": 184.2556, "MEAN_ANOMALY": 175.8383, "EPHEMERIS_TYPE": 0, "CLASSIFICATION_TYPE": "U", "NORAD_CAT_ID": 33936, "ELEMENT_SET_NO": 999, "REV_AT_EPOCH": 88949, "BSTAR": 0.00049748189, "MEAN_MOTION_DOT": 2.386e-05, "MEAN_MOTION_DDOT": 0}, "tle": {"line1": "1 33936U 93036ER  25350.81103001  .00002386  00000+0  49748-3 0  9997", "line2": "2 33936  74.0186  29.7030 0027265 184.2556 175.8383 14.60297922889491"}}, "geometry": {"type": "Point", "coordinates": [-166.62013544219215, 42.26344811305705]}}, {"type": "Feature", "properties": {"norad_id": 33938, "name": "COSMOS 2251 DEB", "group": "cosmos-2251-debris", "lat": 55.75675320221289, "lon": -6.478149762438339, "alt_km": 741.6421853467982, "timestamp": "2025-12-17T10:52:54.745426+00:00", "meta": {"OBJECT_NAME": "COSMOS 2251 DEB", "OBJECT_ID": "1993-036ET", "EPOCH": "2025-12-16T23:15:37.501056", "MEAN_MOTION": 14.46805998, "ECCENTRICITY": 0.00168503, "INCLINATION": 74.0438, "RA_OF_ASC_NODE": 199.2797, "ARG_OF_PERICENTER": 281.0423, "MEAN_ANOMALY": 198.5999, "EPHEMERIS_TYPE": 0, "CLASSIFICATION_TYPE": "U", "NORAD_CAT_ID": 33938, "ELEMENT_SET_NO": 999, "REV_AT_EPOCH": 88461, "BSTAR": 0.00036624902, "MEAN_MOTION_DOT": 1.302e-05, "MEAN_MOTION_DDOT": 0}, "tle": {"line1": "1 33938U 93036ET  25350.96918404  .00001302  00000+0  36625-3 0  9993", "line2": "2 33938  74.0438 199.2797 0016850 281.0423 198.5999 14.46805998884619"}}, "geometry": {"type": "Point", "coordinates": [-6.478149762438339, 55.75675320221289]}}]}